STARLINK-36621
1 67561U 26016A   26090.83335647 -.00011326  00000+0 -34891-3 0  9998
2 67561  97.2846 151.8930 0001746  88.4448 323.5788 15.33454851  5936
STARLINK-35725
1 67565U 26016E   26090.83335647 -.00021044  00000+0 -65110-3 0  9998
2 67565  97.2846 151.9258 0001354  67.4895  59.5343 15.33455066  5989
STARLINK-36394
1 67566U 26016F   26090.83335647 -.00016369  00000+0 -50559-3 0  9994
2 67566  97.2844 151.9183 0001281  51.8619  60.1505 15.33458632  5985
STARLINK-36435
1 67568U 26016H   26090.83335647 -.00018596  00000+0 -57500-3 0  9993
2 67568  97.2848 152.0210 0001697  77.0948 274.9381 15.33449803  5921
STARLINK-36562
1 67570U 26016K   26090.83335647 -.00010258  00000+0 -31574-3 0  9996
2 67570  97.2849 152.0033 0001559  79.7313 227.2918 15.33454419  5982
STARLINK-36350
1 67572U 26016M   26090.83335647 -.00032013  00000+0 -99248-3 0  9993
2 67572  97.2844 151.9367 0001346 110.4435  46.4914 15.33476592  5803
STARLINK-36588
1 67573U 26016N   26090.83335647 -.00024280  00000+0 -75204-3 0  9997
2 67573  97.2845 151.9313 0001399  84.4493  57.5801 15.33449960  5984
STARLINK-36400
1 67575U 26016Q   26090.83335647 -.00013160  00000+0 -40583-3 0  9996
2 67575  97.2841 151.9641 0001393 106.5380 110.4791 15.33459803  5873
STARLINK-36591
1 67576U 26016R   26090.83335647 -.00025771  00000+0 -79874-3 0  9993
2 67576  97.2847 151.9882 0000789  62.9369 213.9955 15.33441974  5980
STARLINK-36590
1 67577U 26016S   26090.83335647 -.00013443  00000+0 -41465-3 0  9992
2 67577  97.2839 151.9577 0001674  85.9409 116.0820 15.33455750  5933
STARLINK-36613
1 67578U 26016T   26090.42969340  .00018219  00000+0  56510-3 0  9992
2 67578  97.2846 151.5019 0001138  90.3699 269.7674 15.33456237 10193
STARLINK-36571
1 67579U 26016U   26090.83335647 -.00015681  00000+0 -48422-3 0  9990
2 67579  97.2839 151.9514 0001466  85.5643 101.4605 15.33456624  5931
STARLINK-36609
1 67582U 26016X   26090.83335647 -.00017131  00000+0 -52931-3 0  9996
2 67582  97.2843 151.9447 0001098  81.3947  90.6258 15.33456226  5882
STARLINK-36419
1 67584U 26016Z   26090.83335647 -.00010883  00000+0 -33517-3 0  9994
2 67584  97.2847 152.0155 0001695  72.8823 264.1385 15.33453279  5937
STARLINK-36376
1 67590U 26018B   26090.14401510  .00028909  00000+0  89410-3 0  9999
2 67590  97.2845 156.0728 0000959  77.7716 282.3634 15.33454121 10627
STARLINK-36391
1 67591U 26018C   26090.43768087  .00033400  00000+0  10313-2 0  9994
2 67591  97.2844 156.2886 0001547  82.6755 277.4664 15.33475793 10666
STARLINK-36603
1 67592U 26018D   26090.13857660  .00023378  00000+0  72407-3 0  9994
2 67592  97.2852 156.0810 0001003  81.7424 278.3932 15.33452332 10629
STARLINK-36634
1 67593U 26018E   26090.13313934  .00039563  00000+0  12203-2 0  9996
2 67593  97.2844 156.0880 0001923  83.2354 276.9108 15.33471875 10620
STARLINK-36628
1 67595U 26018G   26090.14945407  .00050212  00000+0  15460-2 0  9997
2 67595  97.2845 156.0650 0002063  85.3816 274.7662 15.33471166 10624
STARLINK-36384
1 67597U 26018J   26090.44309977  .00016523  00000+0  51288-3 0  9994
2 67597  97.2856 156.4344 0000996  83.6046 276.5311 15.33453398 10674
STARLINK-36640
1 67600U 26018M   26090.41591183  .00018773  00000+0  58221-3 0  9991
2 67600  97.2842 156.3159 0001353  98.5879 261.5517 15.33453812 10666
STARLINK-36635
1 67601U 26018N   26090.44853859  .00025276  00000+0  78213-3 0  9995
2 67601  97.2855 156.4262 0001900  93.4614 266.6846 15.33464333 10678
STARLINK-36631
1 67602U 26018P   26090.44038194  .00018645  00000+0  57834-3 0  9991
2 67602  97.2859 156.4381 0000418 110.0142 250.1146 15.33450587 10677
STARLINK-36626
1 67603U 26018Q   26090.13042071  .00038605  00000+0  11911-2 0  9990
2 67603  97.2857 156.0933 0002121  75.3148 284.8329 15.33467681 10622
STARLINK-36281
1 67605U 26018S   26090.42680260  .00041272  00000+0  12735-2 0  9991
2 67605  97.2849 156.3018 0000933  84.0889 276.0460 15.33451603 10660
STARLINK-35843
1 67606U 26018T   26090.14129560  .00026097  00000+0  80765-3 0  9999
2 67606  97.2854 156.0785 0001129  90.0164 270.1208 15.33454787 10623
STARLINK-36351
1 67607U 26018U   26090.45397227  .00028386  00000+0  87716-3 0  9997
2 67607  97.2841 156.4179 0001624  86.5286 273.6143 15.33485380 10670
STARLINK-36411
1 67608U 26018V   26090.42950626  .00024449  00000+0  75694-3 0  9991
2 67608  97.2859 156.2986 0000941 101.5283 258.6066 15.33454824 10665
STARLINK-36312
1 67609U 26018W   26090.45125520  .00034476  00000+0  10647-2 0  9999
2 67609  97.2858 156.4234 0000798  87.9036 272.2298 15.33464252 10672
STARLINK-36407
1 67612U 26018Z   26090.44582020  .00021420  00000+0  66367-3 0  9990
2 67612  97.2853 156.4312 0002514  89.4798 270.6733 15.33454944 10727
STARLINK-36719
1 67648U 26022A   26090.51749253  .00024099  00000+0  74606-3 0  9995
2 67648  97.2846 124.4808 0001320  87.9232 272.2162 15.33459671  8917
STARLINK-36696
1 67651U 26022D   26090.37066718  .00020885  00000+0  64735-3 0  9992
2 67651  97.2847 124.3745 0000951  94.1400 265.9952 15.33450737  8894
STARLINK-36699
1 67652U 26022E   26090.53380302  .00035534  00000+0  10971-2 0  9998
2 67652  97.2812 124.6099 0000471 139.0112 221.1166 15.33466040  8927
STARLINK-36694
1 67653U 26022F   26090.50933163  .00029219  00000+0  90333-3 0  9999
2 67653  97.2829 124.4894 0000787   6.9107 353.2147 15.33464450  8911
STARLINK-36720
1 67655U 26022H   26090.54196009  .00032448  00000+0  10026-2 0  9993
2 67655  97.2810 124.6001 0000629 147.3339 212.7943 15.33459237  8928
STARLINK-36688
1 67656U 26022J   26090.52564735  .00024916  00000+0  77129-3 0  9996
2 67656  97.2845 124.6218 0000800  95.2769 264.8565 15.33456296  8926
STARLINK-36706
1 67657U 26022K   26090.37338518  .00024461  00000+0  75721-3 0  9999
2 67657  97.2840 124.3691 0001644  97.8862 262.2567 15.33458451  8898
STARLINK-36642
1 67659U 26022M   26090.55283407  .00030184  00000+0  93290-3 0  9997
2 67659  97.2835 124.5846 0000307  96.0710 264.0567 15.33467742  8923
STARLINK-36674
1 67661U 26022P   26090.34075740  .00022314  00000+0  69142-3 0  9991
2 67661  97.2832 124.4140 0000197 148.9876 211.1378 15.33448146  8892
STARLINK-36700
1 67662U 26022Q   26090.06342443  .00023271  00000+0  72081-3 0  9997
2 67662  97.2834 124.1802 0001127  86.6449 273.4922 15.33450783  8857
STARLINK-36675
1 67663U 26022R   26090.52836703  .00025650  00000+0  79403-3 0  9994
2 67663  97.2833 124.6180 0000301 204.7603 155.3625 15.33450294  8922
STARLINK-36404
1 67664U 26022S   26090.51477005  .00032281  00000+0  99733-3 0  9996
2 67664  97.2843 124.4828 0000227  11.2386 348.8862 15.33465592  8915
STARLINK-36399
1 67665U 26022T   26090.05526775  .00027853  00000+0  86169-3 0  9993
2 67665  97.2838 124.0383 0001589  83.5088 276.6335 15.33452071  8848
STARLINK-36365
1 67666U 26022U   26090.50661721  .00026326  00000+0  81462-3 0  9990
2 67666  97.2842 124.4950 0001677  44.1890 315.9487 15.33456155  8910
STARLINK-36625
1 67668U 26022W   26090.55555538  .00021277  00000+0  65925-3 0  9991
2 67668  97.2820 124.5813 0000964  87.6373 272.4980 15.33458235  8920
STARLINK-36639
1 67669U 26022X   26090.35164410  .00029797  00000+0  92238-3 0  9997
2 67669  97.2845 124.4014 0002296 100.2752 259.8750 15.33418289  8898
STARLINK-36297
1 67671U 26022Z   26090.84919889  .00030909  00000+0  95516-3 0  9991
2 67671  97.2835 124.9479 0001908  66.1267 294.0176 15.33465694  8974
STARLINK-36616
1 67672U 26022AA  26090.33532089  .00023585  00000+0  73052-3 0  9992
2 67672  97.2840 124.4214 0000833  98.0811 262.0526 15.33448670  8898
STARLINK-36753
1 67694U 26025B   26090.83335647  .00049603  00000+0  15309-2 0  9994
2 67694  97.2860 203.1338 0001091  67.2473 216.1547 15.33400525  5993
STARLINK-36697
1 67698U 26025F   26090.83335647  .00033540  00000+0  10372-2 0  9996
2 67698  97.2858 203.2272 0001105  24.3495 108.9474 15.33428298  6003
STARLINK-36716
1 67699U 26025G   26090.83335647  .00040070  00000+0  12374-2 0  9997
2 67699  97.2858 203.1488 0001080  83.1530 230.2259 15.33432984  6004
STARLINK-36713
1 67701U 26025J   26090.83335647  .00044956  00000+0  13875-2 0  9995
2 67701  97.2858 203.1543 0001327  80.2798 248.1195 15.33423303  5885
STARLINK-36338
1 67704U 26025M   26090.83335647  .00046913  00000+0  14471-2 0  9996
2 67704  97.2863 203.1417 0001663  83.7294 214.6542 15.33431088  5980
STARLINK-36707
1 67706U 26025P   26090.83335647  .00044267  00000+0  13666-2 0  9993
2 67706  97.2860 203.1809 0001388  68.1129 320.2975 15.33419575  5994
STARLINK-36287
1 67708U 26025R   26090.83335647  .00043886  00000+0  13550-2 0  9993
2 67708  97.2860 203.2447 0001150  69.4272 108.9829 15.33417182  5851
STARLINK-36687
1 67711U 26025U   26090.83335647  .00046476  00000+0  14340-2 0  9993
2 67711  97.2865 203.2771 0001535  91.7996 161.5998 15.33424367  5853
STARLINK-36705
1 67712U 26025V   26090.83335647  .00030876  00000+0  95517-3 0  9997
2 67712  97.2863 203.1650 0001820  90.6286 267.7578 15.33432052  5981
STARLINK-36708
1 67713U 26025W   26090.26392923  .00029047  00000+0  89833-3 0  9997
2 67713  97.2855 201.8036 0001338  69.8135 290.3252 15.33454627  9269
STARLINK-36718
1 67715U 26025Y   26090.83335647  .00017218  00000+0  53475-3 0  9992
2 67715  97.2859 203.2000 0001614  89.3346 344.0714 15.33426603  5944
STARLINK-36715
1 67716U 26025Z   26090.58896224  .00039831  00000+0  12299-2 0  9991
2 67716  97.2858 202.8902 0000681  47.2518 312.8781 15.33436254  9367
STARLINK-36912
1 67961U 26038A   26090.47310654  .00026337  00000+0  81487-3 0  9996
2 67961  97.2829 101.2098 0000425 129.2397 230.8884 15.33460909  6574
STARLINK-36881
1 67962U 26038B   26090.47038875  .00036147  00000+0  11160-2 0  9999
2 67962  97.2867 101.2138 0001073 177.7384 182.3864 15.33462730  6579
STARLINK-36357
1 67963U 26038C   26090.26918630  .00028720  00000+0  88822-3 0  9991
2 67963  97.2846 101.0281 0001377 111.1354 249.0036 15.33456374  6546
STARLINK-36349
1 67964U 26038D   26090.27190734  .00027938  00000+0  86433-3 0  9996
2 67964  97.2859 101.0260 0000738  88.7396 271.3931 15.33452227  6548
STARLINK-36806
1 67965U 26038E   26090.46223418  .00024142  00000+0  74740-3 0  9996
2 67965  97.2837 101.2266 0001205  92.9733 267.1648 15.33459289  6571
STARLINK-36820
1 67966U 26038F   26090.45951591  .00013512  00000+0  42001-3 0  9990
2 67966  97.2843 101.2300 0001391 102.9546 257.1852 15.33453140  6574
STARLINK-36812
1 67968U 26038H   26090.45407730  .00098227  00000+0  30120-2 0  9997
2 67968  97.2841 101.2375 0001440  94.8136 265.3271 15.33376942  6575
STARLINK-36709
1 67969U 26038J   26089.99185311  .00025538  00000+0  79047-3 0  9990
2 67969  97.2853 100.7968 0001157  87.6612 272.4763 15.33454638  6502
STARLINK-36710
1 67971U 26038L   26089.92387844  .00028789  00000+0  89042-3 0  9998
2 67971  97.2845 100.7348 0001235  92.2199 267.9185 15.33454597  6496
STARLINK-36894
1 67972U 26038M   26089.98641365  .00025048  00000+0  77576-3 0  9990
2 67972  97.2855 100.8044 0000801  84.0365 276.0969 15.33439517  6502
STARLINK-36901
1 67974U 26038P   26089.98369693  .00033696  00000+0  10409-2 0  9992
2 67974  97.2843 100.8073 0002074 100.7980 259.3496 15.33458417  6505
STARLINK-36883
1 67975U 26038Q   26090.83335647  .00077072  00000+0  23678-2 0  9999
2 67975  97.2852 101.6780 0001403  96.6879 345.8479 15.33412601  5983
STARLINK-36904
1 67977U 26038S   26090.83335647  .00052259  00000+0  16115-2 0  9999
2 67977  97.2849 101.6693 0001446  95.2937 332.1529 15.33412765  5987
STARLINK-36364
1 67978U 26038T   26090.74772869  .00024404  00000+0  75582-3 0  9996
2 67978  97.2843 101.6044 0001845 100.8775 259.2675 15.33443156  6629
STARLINK-36874
1 67981U 26038W   26090.74500925  .00017554  00000+0  54484-3 0  9998
2 67981  97.2847 101.6079 0001839  99.2539 260.8912 15.33442420  6622
STARLINK-36266
1 67984U 26038Z   26090.73957217  .00033975  00000+0  10503-2 0  9998
2 67984  97.2841 101.6154 0001502  95.1665 264.9749 15.33435991  6623
STARLINK-36253
1 68028U 26040P   26090.83335647  .00072568  00000+0  22318-2 0  9997
2 68028  97.2861  39.6330 0002327  81.5013 243.9536 15.33398446  6098
